{
  "type": "FeatureCollection",
  "name": "punggur_points",
  "crs": {
    "type": "name",
    "properties": {
      "name": "EPSG:4326"
    }
  },
  "features": [
    {
      "type": "Feature",
      "properties": {
        "nama": "Kecamatan Punggur",
        "tipe": "kecamatan",
        "kabupaten": "Lampung Tengah",
        "provinsi": "Lampung",
        "sumber": "Wikipedia (koordinat pusat kecamatan)"
      },
      "geometry": {
        "type": "Point",
        "coordinates": [
          105.27616093702213,
          -5.0383065874663115
        ]
      }
    },
    {
      "type": "Feature",
      "properties": {
        "nama": "Asto Mulyo",
        "tipe": "desa",
        "kode_kemendagri": "18.02.06.2008",
        "kode_pos": "34152",
        "sumber": "kodepos.co.id"
      },
      "geometry": {
        "type": "Point",
        "coordinates": [
          105.2737212,
          -5.0034587
        ]
      }
    },
    {
      "type": "Feature",
      "properties": {
        "nama": "Badran Sari",
        "tipe": "desa",
        "kode_kemendagri": "18.02.06.2002",
        "kode_pos": "34152",
        "sumber": "Google Maps"
      },
      "geometry": {
        "type": "Point",
        "coordinates": [
          105.2994882,
          -5.0552552
        ]
      }
    },
    {
      "type": "Feature",
      "properties": {
        "nama": "Ngesti Rahayu",
        "tipe": "desa",
        "kode_kemendagri": "18.02.06.2006",
        "kode_pos": "34152",
        "elevasi_m": 43,
        "sumber": "Google Maps"
      },
      "geometry": {
        "type": "Point",
        "coordinates": [
          105.2570432,
          -5.0229265
        ]
      }
    },
    {
      "type": "Feature",
      "properties": {
        "nama": "Sido Mulyo",
        "tipe": "desa",
        "kode_kemendagri": "18.02.06.2009",
        "kode_pos": "34152",
        "sumber": "Google Maps"
      },
      "geometry": {
        "type": "Point",
        "coordinates": [
          105.2860963,
          -5.0332688
        ]
      }
    },
    {
      "type": "Feature",
      "properties": {
        "nama": "Toto Katon",
        "tipe": "desa",
        "kode_kemendagri": "18.02.06.2004",
        "kode_pos": "34152",
        "sumber": "Google Maps"
      },
      "geometry": {
        "type": "Point",
        "coordinates": [
          105.2749651,
          -5.0501194
        ]
      }
    },
    {
      "type": "Feature",
      "properties": {
        "nama": "Mojo Pahit",
        "tipe": "desa",
        "kode_kemendagri": "18.02.06.2007",
        "kode_pos": "34152",
        "sumber": "Google Maps"
      },
      "geometry": {
        "type": "Point",
        "coordinates": [
          105.2492546,
          -4.9961666
        ]
      }
    },
    {
      "type": "Feature",
      "properties": {
        "nama": "Nunggal Rejo",
        "tipe": "desa",
        "kode_kemendagri": "18.02.06.2001",
        "kode_pos": "34152",
        "sumber": "Google Maps"
      },
      "geometry": {
        "type": "Point",
        "coordinates": [
          105.279687,
          -5.066278
        ]
      }
    },
    {
      "type": "Feature",
      "properties": {
        "nama": "Sri Sawahan",
        "tipe": "desa",
        "kode_kemendagri": "18.02.06.2003",
        "kode_pos": "34152",
        "elevasi_m": 49,
        "sumber": "kodepos.co.id"
      },
      "geometry": {
        "type": "Point",
        "coordinates": [
          105.3273066,
          -5.0454785
        ]
      }
    },
    {
      "type": "Feature",
      "properties": {
        "nama": "Tanggul Angin",
        "tipe": "desa",
        "kode_kemendagri": "18.02.06.2005",
        "kode_pos": "34152",
        "elevasi_m": 50,
        "sumber": "kodepos.co.id"
      },
      "geometry": {
        "type": "Point",
        "coordinates": [
          105.2595653,
          -5.0395882
        ]
      }
    }
  ]
}